[{"OBJECT_NAME":"DONGPO 08","OBJECT_ID":"2022-167E","EPOCH":"2026-03-09T22:57:52.742880","MEAN_MOTION":15.31542505,"ECCENTRICITY":0.00092155,"INCLINATION":97.6764,"RA_OF_ASC_NODE":233.3854,"ARG_OF_PERICENTER":153.9158,"MEAN_ANOMALY":206.2548,"EPHEMERIS_TYPE":0,"CLASSIFICATION_TYPE":"U","NORAD_CAT_ID":54686,"ELEMENT_SET_NO":999,"REV_AT_EPOCH":18012,"BSTAR":0.0004734784,"MEAN_MOTION_DOT":0.0001437,"MEAN_MOTION_DDOT":0},{"OBJECT_NAME":"STARLINK-35307","OBJECT_ID":"2025-232J","EPOCH":"2026-03-09T11:39:48.211488","MEAN_MOTION":15.30196168,"ECCENTRICITY":0.00015414,"INCLINATION":53.1598,"RA_OF_ASC_NODE":104.9099,"ARG_OF_PERICENTER":83.6196,"MEAN_ANOMALY":276.4981,"EPHEMERIS_TYPE":0,"CLASSIFICATION_TYPE":"U","NORAD_CAT_ID":66013,"ELEMENT_SET_NO":999,"REV_AT_EPOCH":2340,"BSTAR":0.00068360071,"MEAN_MOTION_DOT":0.00019939,"MEAN_MOTION_DDOT":0}]
